[{"OBJECT_NAME":"STARLINK-4269","OBJECT_ID":"2022-076G","EPOCH":"2026-03-09T09:44:44.356416","MEAN_MOTION":15.08833761,"ECCENTRICITY":0.00013797,"INCLINATION":53.2169,"RA_OF_ASC_NODE":105.4028,"ARG_OF_PERICENTER":82.6987,"MEAN_ANOMALY":277.4162,"EPHEMERIS_TYPE":0,"CLASSIFICATION_TYPE":"U","NORAD_CAT_ID":52992,"ELEMENT_SET_NO":999,"REV_AT_EPOCH":20266,"BSTAR":-9.672399e-6,"MEAN_MOTION_DOT":-4.42e-6,"MEAN_MOTION_DDOT":0},{"OBJECT_NAME":"KUIPER-00164","OBJECT_ID":"2025-301B","EPOCH":"2026-03-09T22:00:01.999584","MEAN_MOTION":15.08488187,"ECCENTRICITY":0.00045568,"INCLINATION":51.8847,"RA_OF_ASC_NODE":66.2292,"ARG_OF_PERICENTER":84.8156,"MEAN_ANOMALY":198.9561,"EPHEMERIS_TYPE":0,"CLASSIFICATION_TYPE":"U","NORAD_CAT_ID":67134,"ELEMENT_SET_NO":999,"REV_AT_EPOCH":541,"BSTAR":0.00024752424,"MEAN_MOTION_DOT":3.618e-5,"MEAN_MOTION_DDOT":0}]
